STARLINK-3619           
1 51787U 22017V   25201.56623832  .00000400  00000+0  43210-4 0  9992
2 51787  53.2172 311.1633 0001281  90.7909 269.3230 15.08835610187237
STARLINK-3641           
1 51788U 22017W   25202.46785481 -.00001952  00000+0 -10461-3 0  9998
2 51788  53.2212 307.1192 0001411  96.5419 263.5734 15.08824296189014
STARLINK-3639           
1 51789U 22017X   25202.54879964  .00002587  00000+0  18062-3 0  9996
2 51789  53.2213 306.7547 0001571  95.9386 264.1785 15.08829588189032
STARLINK-3631           
1 51790U 22017Y   25202.00047974  .00000739  00000+0  64553-4 0  9991
2 51790  53.2187 309.2160 0001335  92.9563 267.1582 15.08835042188999
STARLINK-3602           
1 51791U 22017Z   25202.54143948  .00000486  00000+0  48614-4 0  9998
2 51791  53.2173 306.7864 0001087  84.2112 275.9004 15.08839418189028
STARLINK-3626           
1 51792U 22017AA  25201.59567913 -.00000107  00000+0  11334-4 0  9995
2 51792  53.2174 311.0334 0000939  86.9755 273.1344 15.08835058188930
STARLINK-3633           
1 51793U 22017AB  25202.53871607  .00000744  00000+0  64833-4 0  9997
2 51793  53.2175 306.8096 0001187  88.0951 272.0177 15.08840455189071
STARLINK-3573           
1 51794U 22017AC  25201.58831558 -.00000094  00000+0  12162-4 0  9990
2 51794  53.2184 311.0638 0001162  90.5112 269.6014 15.08835435188884
STARLINK-3586           
1 51795U 22017AD  25202.47153876  .00001029  00000+0  82722-4 0  9997
2 51795  53.2187 307.3025 0001124  86.1324 273.9797 15.08841996189011
STARLINK-3634           
1 51798U 22017AG  25201.57360061 -.00001127  00000+0 -52758-4 0  9993
2 51798  53.2186 311.1303 0001355  97.3893 262.7253 15.08837120188922
STARLINK-3637           
1 51799U 22017AH  25201.58463753 -.00000372  00000+0 -52798-5 0  9993
2 51799  53.2180 311.0819 0001155  91.1454 268.9670 15.08837322188881
STARLINK-3592           
1 51801U 22017AK  25201.71343734  .00000001  00000+0  18174-4 0  9994
2 51801  53.2187 310.5034 0001203  86.7051 273.4078 15.08835625188902
STARLINK-3557           
1 51802U 22017AL  25201.47598517  .00059895  00000+0  15100-2 0  9998
2 51802  53.2010 295.4431 0002826 352.4236   7.6726 15.39326774189092
STARLINK-3544           
1 51803U 22017AM  25202.03359799  .00000218  00000+0  31809-4 0  9990
2 51803  53.2181 309.0654 0001390  94.2804 265.8347 15.08840227188948
STARLINK-3601           
1 51804U 22017AN  25201.51655475  .00000243  00000+0  33330-4 0  9992
2 51804  53.2178 291.3887 0001043  83.8032 276.3078 15.08839500189208
STARLINK-3605           
1 51805U 22017AP  25202.44762527 -.00002506  00000+0 -13949-3 0  9992
2 51805  53.2177 287.2852 0001169  94.3781 265.7344 15.08821106189336
STARLINK-3606           
1 51807U 22017AR  25202.46139545  .00000128  00000+0  26141-4 0  9999
2 51807  53.2152 297.1464 0001189  87.7071 272.4057 15.08840611189204
STARLINK-3609           
1 51808U 22017AS  25201.65180313  .00000332  00000+0  38968-4 0  9996
2 51808  53.2197 300.7819 0001256  84.3195 275.7941 15.08833978188939
STARLINK-3607           
1 51809U 22017AT  25202.52027515  .00001478  00000+0  11096-3 0  9992
2 51809  53.2183 296.8448 0001182  88.9043 271.2085 15.08832031189163
STARLINK-3613           
1 51810U 22017AU  25201.96186687  .00000457  00000+0  46785-4 0  9997
2 51810  53.2174 289.6116 0001157  86.6207 273.4917 15.08837880189217
STARLINK-3569           
1 51811U 22017AV  25202.45035522  .00000274  00000+0  35301-4 0  9993
2 51811  53.2165 297.1995 0001132  96.0748 264.0373 15.08841896189152
STARLINK-3610           
1 51812U 22017AW  25201.46503359 -.00000151  00000+0  85859-5 0  9991
2 51812  53.2180 291.6186 0001049  88.7746 271.3366 15.08837536189029
STARLINK-3552           
1 51813U 22017AX  25201.97655954  .00000246  00000+0  33534-4 0  9993
2 51813  53.2180 289.3523 0001105  89.1228 270.9890 15.08840802189210
STARLINK-3599           
1 51814U 22017AY  25201.65639575 -.00000016  00000+0  17073-4 0  9996
2 51814  53.2173 290.7620 0001166  83.8234 276.2891 15.08837560189051
STARLINK-3604           
1 51815U 22017AZ  25202.45495405  .00000533  00000+0  51595-4 0  9998
2 51815  53.2178 287.1707 0001272 111.1087 249.0041 15.08839790189290
STARLINK-3603           
1 51816U 22017BA  25201.94074592  .00000007  00000+0  18510-4 0  9998
2 51816  53.2180 289.7238 0001132  84.7637 275.3484 15.08835480189141
STARLINK-3542           
1 51852U 22022A   25202.34363762  .00000143  00000+0  27062-4 0  9992
2 51852  53.2176 337.6734 0001413  91.1555 268.9599 15.08836613188089
STARLINK-3541           
1 51854U 22022C   25201.81004057 -.00000743  00000+0 -28585-4 0  9993
2 51854  53.2186 340.0685 0000961  80.8619 279.2482 15.08835351188015
STARLINK-3545           
1 51855U 22022D   25201.66282286  .00000489  00000+0  48788-4 0  9991
2 51855  53.2176 340.6539 0000794  67.5736 292.5340 15.08839663187947
STARLINK-3568           
1 51856U 22022E   25201.67483547 -.00000233  00000+0  34639-5 0  9995
2 51856  53.2127 340.6839 0001654  94.7961 265.3219 15.08834579188029
