OBJECT_NAME,OBJECT_ID,EPOCH,MEAN_MOTION,ECCENTRICITY,INCLINATION,RA_OF_ASC_NODE,ARG_OF_PERICENTER,MEAN_ANOMALY,EPHEMERIS_TYPE,CLASSIFICATION_TYPE,NORAD_CAT_ID,ELEMENT_SET_NO,REV_AT_EPOCH,BSTAR,MEAN_MOTION_DOT,MEAN_MOTION_DDOT
STARLINK-3619,2022-017V,2025-07-20T13:35:22.990848,15.08835610,.0001281,53.2172,311.1633,90.7909,269.3230,0,U,51787,999,18723,.4321E-4,.4E-5,0
STARLINK-3641,2022-017W,2025-07-21T11:13:42.655584,15.08824296,.0001411,53.2212,307.1192,96.5419,263.5734,0,U,51788,999,18901,-.10461E-3,-.1952E-4,0
STARLINK-3639,2022-017X,2025-07-21T13:10:16.288896,15.08829588,.0001571,53.2213,306.7547,95.9386,264.1785,0,U,51789,999,18903,.18062E-3,.2587E-4,0
STARLINK-3631,2022-017Y,2025-07-21T00:00:41.449536,15.08835042,.0001335,53.2187,309.2160,92.9563,267.1582,0,U,51790,999,18899,.64553E-4,.739E-5,0
STARLINK-3602,2022-017Z,2025-07-21T12:59:40.371072,15.08839418,.0001087,53.2173,306.7864,84.2112,275.9004,0,U,51791,999,18902,.48614E-4,.486E-5,0
STARLINK-3626,2022-017AA,2025-07-20T14:17:46.676832,15.08835058,.0000939,53.2174,311.0334,86.9755,273.1344,0,U,51792,999,18893,.11334E-4,-.107E-5,0
STARLINK-3633,2022-017AB,2025-07-21T12:55:45.068448,15.08840455,.0001187,53.2175,306.8096,88.0951,272.0177,0,U,51793,999,18907,.64833E-4,.744E-5,0
STARLINK-3573,2022-017AC,2025-07-20T14:07:10.466112,15.08835435,.0001162,53.2184,311.0638,90.5112,269.6014,0,U,51794,999,18888,.12162E-4,-.94E-6,0
STARLINK-3586,2022-017AD,2025-07-21T11:19:00.948864,15.08841996,.0001124,53.2187,307.3025,86.1324,273.9797,0,U,51795,999,18901,.82722E-4,.1029E-4,0
STARLINK-3634,2022-017AG,2025-07-20T13:45:59.092704,15.08837120,.0001355,53.2186,311.1303,97.3893,262.7253,0,U,51798,999,18892,-.52758E-4,-.1127E-4,0
STARLINK-3637,2022-017AH,2025-07-20T14:01:52.682592,15.08837322,.0001155,53.2180,311.0819,91.1454,268.9670,0,U,51799,999,18888,-.52798E-5,-.372E-5,0
STARLINK-3592,2022-017AK,2025-07-20T17:07:20.986176,15.08835625,.0001203,53.2187,310.5034,86.7051,273.4078,0,U,51801,999,18890,.18174E-4,.1E-7,0
STARLINK-3557,2022-017AL,2025-07-20T11:25:25.118688,15.39326774,.0002826,53.2010,295.4431,352.4236,7.6726,0,U,51802,999,18909,.151E-2,.59895E-3,0
STARLINK-3544,2022-017AM,2025-07-21T00:48:22.866336,15.08840227,.000139,53.2181,309.0654,94.2804,265.8347,0,U,51803,999,18894,.31809E-4,.218E-5,0
STARLINK-3601,2022-017AN,2025-07-20T12:23:50.330400,15.08839500,.0001043,53.2178,291.3887,83.8032,276.3078,0,U,51804,999,18920,.3333E-4,.243E-5,0
STARLINK-3605,2022-017AP,2025-07-21T10:44:34.823328,15.08821106,.0001169,53.2177,287.2852,94.3781,265.7344,0,U,51805,999,18933,-.13949E-3,-.2506E-4,0
STARLINK-3606,2022-017AR,2025-07-21T11:04:24.566880,15.08840611,.0001189,53.2152,297.1464,87.7071,272.4057,0,U,51807,999,18920,.26141E-4,.128E-5,0
STARLINK-3609,2022-017AS,2025-07-20T15:38:35.790432,15.08833978,.0001256,53.2197,300.7819,84.3195,275.7941,0,U,51808,999,18893,.38968E-4,.332E-5,0
STARLINK-3607,2022-017AT,2025-07-21T12:29:11.772960,15.08832031,.0001182,53.2183,296.8448,88.9043,271.2085,0,U,51809,999,18916,.11096E-3,.1478E-4,0
STARLINK-3613,2022-017AU,2025-07-20T23:05:05.297568,15.08837880,.0001157,53.2174,289.6116,86.6207,273.4917,0,U,51810,999,18921,.46785E-4,.457E-5,0
STARLINK-3569,2022-017AV,2025-07-21T10:48:30.691008,15.08841896,.0001132,53.2165,297.1995,96.0748,264.0373,0,U,51811,999,18915,.35301E-4,.274E-5,0
STARLINK-3610,2022-017AW,2025-07-20T11:09:38.902176,15.08837536,.0001049,53.2180,291.6186,88.7746,271.3366,0,U,51812,999,18902,.85859E-5,-.151E-5,0
STARLINK-3552,2022-017AX,2025-07-20T23:26:14.744256,15.08840802,.0001105,53.2180,289.3523,89.1228,270.9890,0,U,51813,999,18921,.33534E-4,.246E-5,0
STARLINK-3599,2022-017AY,2025-07-20T15:45:12.592800,15.08837560,.0001166,53.2173,290.7620,83.8234,276.2891,0,U,51814,999,18905,.17073E-4,-.16E-6,0
STARLINK-3604,2022-017AZ,2025-07-21T10:55:08.029920,15.08839790,.0001272,53.2178,287.1707,111.1087,249.0041,0,U,51815,999,18929,.51595E-4,.533E-5,0
STARLINK-3603,2022-017BA,2025-07-20T22:34:40.447488,15.08835480,.0001132,53.2180,289.7238,84.7637,275.3484,0,U,51816,999,18914,.1851E-4,.7E-7,0
STARLINK-3542,2022-022A,2025-07-21T08:14:50.290368,15.08836613,.0001413,53.2176,337.6734,91.1555,268.9599,0,U,51852,999,18808,.27062E-4,.143E-5,0
STARLINK-3541,2022-022C,2025-07-20T19:26:27.505248,15.08835351,.0000961,53.2186,340.0685,80.8619,279.2482,0,U,51854,999,18801,-.28585E-4,-.743E-5,0
STARLINK-3545,2022-022D,2025-07-20T15:54:27.895104,15.08839663,.0000794,53.2176,340.6539,67.5736,292.5340,0,U,51855,999,18794,.48788E-4,.489E-5,0
STARLINK-3568,2022-022E,2025-07-20T16:11:45.784608,15.08834579,.0001654,53.2127,340.6839,94.7961,265.3219,0,U,51856,999,18802,.34639E-5,-.233E-5,0
